ORBCOMM FM06            
1 25118U 97084G   26197.46385006  .00000427  00000+0  15401-3 0  9998
2 25118  45.0136 271.7670 0001591 235.8178 139.2905 14.47628571498632
ORBCOMM FM04            
1 25159U 98007C   26197.93572005  .00000340  00000+0  16179-3 0  9995
2 25159 107.9632 230.6487 0041972 273.9652  85.6691 14.35786294480869
ORBCOMM FM19            
1 25415U 98046C   26198.14857184  .00000390  00000+0  16921-3 0  9991
2 25415  44.9936 101.1368 0003246  75.8966  72.2293 14.39543462461096
ORBCOMM FM20            
1 25416U 98046D   26198.16272578  .00000280  00000+0  13814-3 0  9998
2 25416  44.9937 109.3238 0001236  11.1792 348.9084 14.38101952461107
ORBCOMM FM27            
1 25481U 98053G   26197.06510712  .00000301  00000+0  14186-3 0  9998
2 25481  45.0036 198.1872 0002378 294.2041  65.8559 14.39185706454395
ORBCOMM FM32            
1 25982U 99065C   26198.18176597  .00000252  00000+0  13137-3 0  9991
2 25982  45.0159  31.2590 0005872 201.5587 158.5014 14.37169604391404
ORBCOMM FM109           
1 40086U 14040A   26198.30099115  .00000063  00000+0  49507-4 0  9998
2 40086  47.0036 309.1089 0001396 329.9966  30.0840 14.58872972638749
ORBCOMM FM110           
1 41182U 15081D   26198.10027389  .00000155  00000+0  68947-4 0  9995
2 41182  47.0002 220.0009 0003674 230.3592 129.6970 14.58919410561994
ORBCOMM FM118           
1 41183U 15081E   26198.13472140  .00000024  00000+0  41417-4 0  9996
2 41183  47.0024 220.1769 0002991 195.0175 165.0623 14.58904651562102
ORBCOMM FM112           
1 41184U 15081F   26198.20716236  .00000247  00000+0  88473-4 0  9992
2 41184  46.9984 128.2849 0003574 337.1225  22.9501 14.58940112563330
ORBCOMM FM113           
1 41185U 15081G   26198.18483880  .00000107  00000+0  58832-4 0  9997
2 41185  47.0001 128.7827 0002114 329.1270  30.9491 14.58883148563314
ORBCOMM FM108           
1 41187U 15081J   26197.94134359  .00000230  00000+0  84789-4 0  9993
2 41187  47.0056  41.5154 0002521 328.5307  31.5427 14.58911927564423
ORBCOMM FM117           
1 41188U 15081K   26198.24951844  .00000204  00000+0  79362-4 0  9996
2 41188  47.0021  38.6849 0002934 337.7379  22.3379 14.58899138564516
ORBCOMM FM116           
1 41189U 15081L   26198.22964457  .00000122  00000+0  62078-4 0  9994
2 41189  47.0015 128.5679 0001618 235.0484 125.0250 14.58907459563328
